[
  {
    "OBJECT_NAME": "STARLINK-6258",
    "OBJECT_ID": "23061AR",
    "EPOCH": "2025-11-11T03:30:36.241056",
    "MEAN_MOTION": 15.0253834,
    "ECCENTRICITY": 0.0001274,
    "INCLINATION": 43.0032,
    "RA_OF_ASC_NODE": 108.51,
    "ARG_OF_PERICENTER": 266.9953,
    "MEAN_ANOMALY": 93.0743,
    "EPHEMERIS_TYPE": 0,
    "CLASSIFICATION_TYPE": "U",
    "NORAD_CAT_ID": 56413,
    "ELEMENT_SET_NO": 999,
    "REV_AT_EPOCH": 13907,
    "BSTAR": 6.660100000000001e-05,
    "MEAN_MOTION_DOT": 6.96e-06,
    "MEAN_MOTION_DDOT": 0.0,
    "TLE_LINE1": "1 56413U 23061AR  25315.14625279  .00000696  00000+0  66601-4 0  9996",
    "TLE_LINE2": "2 56413  43.0032 108.5100 0001274 266.9953  93.0743 15.02538340139079",
    "COMMENT": "Grouped by shell and plane from TLE"
  },
  {
    "OBJECT_NAME": "STARLINK-5136",
    "OBJECT_ID": "23061AS",
    "EPOCH": "2025-11-11T03:11:25.395648",
    "MEAN_MOTION": 15.02537161,
    "ECCENTRICITY": 0.0001247,
    "INCLINATION": 43.0024,
    "RA_OF_ASC_NODE": 108.4083,
    "ARG_OF_PERICENTER": 271.2094,
    "MEAN_ANOMALY": 88.8605,
    "EPHEMERIS_TYPE": 0,
    "CLASSIFICATION_TYPE": "U",
    "NORAD_CAT_ID": 56414,
    "ELEMENT_SET_NO": 999,
    "REV_AT_EPOCH": 13907,
    "BSTAR": 2.8092e-05,
    "MEAN_MOTION_DOT": 1.76e-06,
    "MEAN_MOTION_DDOT": 0.0,
    "TLE_LINE1": "1 56414U 23061AS  25315.13293282  .00000176  00000+0  28092-4 0  9996",
    "TLE_LINE2": "2 56414  43.0024 108.4083 0001247 271.2094  88.8605 15.02537161139074",
    "COMMENT": "Grouped by shell and plane from TLE"
  },
  {
    "OBJECT_NAME": "STARLINK-30865",
    "OBJECT_ID": "23170W",
    "EPOCH": "2025-11-11T02:55:36.213888",
    "MEAN_MOTION": 15.02537281,
    "ECCENTRICITY": 0.0001191,
    "INCLINATION": 43.0027,
    "RA_OF_ASC_NODE": 109.147,
    "ARG_OF_PERICENTER": 253.687,
    "MEAN_ANOMALY": 106.3842,
    "EPHEMERIS_TYPE": 0,
    "CLASSIFICATION_TYPE": "U",
    "NORAD_CAT_ID": 58226,
    "ELEMENT_SET_NO": 999,
    "REV_AT_EPOCH": 11257,
    "BSTAR": 3.3705000000000003e-05,
    "MEAN_MOTION_DOT": 2.52e-06,
    "MEAN_MOTION_DDOT": 0.0,
    "TLE_LINE1": "1 58226U 23170W   25315.12194692  .00000252  00000+0  33705-4 0  9996",
    "TLE_LINE2": "2 58226  43.0027 109.1470 0001191 253.6870 106.3842 15.02537281112570",
    "COMMENT": "Grouped by shell and plane from TLE"
  },
  {
    "OBJECT_NAME": "STARLINK-32523",
    "OBJECT_ID": "24225C",
    "EPOCH": "2025-11-11T03:04:30.969408",
    "MEAN_MOTION": 14.98340879,
    "ECCENTRICITY": 0.0003173,
    "INCLINATION": 69.998,
    "RA_OF_ASC_NODE": 103.4702,
    "ARG_OF_PERICENTER": 273.3236,
    "MEAN_ANOMALY": 86.756,
    "EPHEMERIS_TYPE": 0,
    "CLASSIFICATION_TYPE": "U",
    "NORAD_CAT_ID": 62165,
    "ELEMENT_SET_NO": 999,
    "REV_AT_EPOCH": 5211,
    "BSTAR": 0.00046961999999999997,
    "MEAN_MOTION_DOT": 5.516e-05,
    "MEAN_MOTION_DDOT": 0.0,
    "TLE_LINE1": "1 62165U 24225C   25315.12813622  .00005516  00000+0  46962-3 0  9992",
    "TLE_LINE2": "2 62165  69.9980 103.4702 0003173 273.3236  86.7560 14.98340879 52114",
    "COMMENT": "Grouped by shell and plane from TLE"
  },
  {
    "OBJECT_NAME": "STARLINK-32551",
    "OBJECT_ID": "24225D",
    "EPOCH": "2025-11-10T16:51:40.616352",
    "MEAN_MOTION": 14.9832538,
    "ECCENTRICITY": 0.0003378,
    "INCLINATION": 70.0014,
    "RA_OF_ASC_NODE": 104.4008,
    "ARG_OF_PERICENTER": 267.9496,
    "MEAN_ANOMALY": 92.1276,
    "EPHEMERIS_TYPE": 0,
    "CLASSIFICATION_TYPE": "U",
    "NORAD_CAT_ID": 62166,
    "ELEMENT_SET_NO": 999,
    "REV_AT_EPOCH": 5205,
    "BSTAR": 0.00069903,
    "MEAN_MOTION_DOT": 8.257e-05,
    "MEAN_MOTION_DDOT": 0.0,
    "TLE_LINE1": "1 62166U 24225D   25314.70255343  .00008257  00000+0  69903-3 0  9991",
    "TLE_LINE2": "2 62166  70.0014 104.4008 0003378 267.9496  92.1276 14.98325380 52058",
    "COMMENT": "Grouped by shell and plane from TLE"
  },
  {
    "OBJECT_NAME": "STARLINK-32506",
    "OBJECT_ID": "24225E",
    "EPOCH": "2025-11-11T03:28:33.785472",
    "MEAN_MOTION": 14.98335607,
    "ECCENTRICITY": 0.0002899,
    "INCLINATION": 69.9986,
    "RA_OF_ASC_NODE": 103.5296,
    "ARG_OF_PERICENTER": 269.7875,
    "MEAN_ANOMALY": 90.2952,
    "EPHEMERIS_TYPE": 0,
    "CLASSIFICATION_TYPE": "U",
    "NORAD_CAT_ID": 62167,
    "ELEMENT_SET_NO": 999,
    "REV_AT_EPOCH": 5211,
    "BSTAR": 0.00041165,
    "MEAN_MOTION_DOT": 4.823e-05,
    "MEAN_MOTION_DDOT": 0.0,
    "TLE_LINE1": "1 62167U 24225E   25315.14483548  .00004823  00000+0  41165-3 0  9996",
    "TLE_LINE2": "2 62167  69.9986 103.5296 0002899 269.7875  90.2952 14.98335607 52111",
    "COMMENT": "Grouped by shell and plane from TLE"
  },
  {
    "OBJECT_NAME": "STARLINK-32562",
    "OBJECT_ID": "24225F",
    "EPOCH": "2025-11-11T02:46:30.294624",
    "MEAN_MOTION": 14.98353264,
    "ECCENTRICITY": 0.0003041,
    "INCLINATION": 69.9996,
    "RA_OF_ASC_NODE": 103.4252,
    "ARG_OF_PERICENTER": 272.3698,
    "MEAN_ANOMALY": 87.7113,
    "EPHEMERIS_TYPE": 0,
    "CLASSIFICATION_TYPE": "U",
    "NORAD_CAT_ID": 62168,
    "ELEMENT_SET_NO": 999,
    "REV_AT_EPOCH": 5211,
    "BSTAR": 0.00065959,
    "MEAN_MOTION_DOT": 7.791e-05,
    "MEAN_MOTION_DDOT": 0.0,
    "TLE_LINE1": "1 62168U 24225F   25315.11562841  .00007791  00000+0  65959-3 0  9992",
    "TLE_LINE2": "2 62168  69.9996 103.4252 0003041 272.3698  87.7113 14.98353264 52116",
    "COMMENT": "Grouped by shell and plane from TLE"
  },
  {
    "OBJECT_NAME": "STARLINK-32558",
    "OBJECT_ID": "24225G",
    "EPOCH": "2025-11-10T20:33:57.910464",
    "MEAN_MOTION": 14.98348255,
    "ECCENTRICITY": 0.0003748,
    "INCLINATION": 70.0068,
    "RA_OF_ASC_NODE": 104.1324,
    "ARG_OF_PERICENTER": 270.5182,
    "MEAN_ANOMALY": 89.5548,
    "EPHEMERIS_TYPE": 0,
    "CLASSIFICATION_TYPE": "U",
    "NORAD_CAT_ID": 62169,
    "ELEMENT_SET_NO": 999,
    "REV_AT_EPOCH": 5207,
    "BSTAR": 0.00070892,
    "MEAN_MOTION_DOT": 8.38e-05,
    "MEAN_MOTION_DDOT": 0.0,
    "TLE_LINE1": "1 62169U 24225G   25314.85692026  .00008380  00000+0  70892-3 0  9999",
    "TLE_LINE2": "2 62169  70.0068 104.1324 0003748 270.5182  89.5548 14.98348255 52071",
    "COMMENT": "Grouped by shell and plane from TLE"
  },
  {
    "OBJECT_NAME": "STARLINK-32538",
    "OBJECT_ID": "24225H",
    "EPOCH": "2025-11-10T16:03:36.569664",
    "MEAN_MOTION": 14.98322646,
    "ECCENTRICITY": 0.0002604,
    "INCLINATION": 70.0003,
    "RA_OF_ASC_NODE": 104.6789,
    "ARG_OF_PERICENTER": 267.9249,
    "MEAN_ANOMALY": 92.1612,
    "EPHEMERIS_TYPE": 0,
    "CLASSIFICATION_TYPE": "U",
    "NORAD_CAT_ID": 62170,
    "ELEMENT_SET_NO": 999,
    "REV_AT_EPOCH": 5204,
    "BSTAR": 0.00073679,
    "MEAN_MOTION_DOT": 8.707e-05,
    "MEAN_MOTION_DDOT": 0.0,
    "TLE_LINE1": "1 62170U 24225H   25314.66917326  .00008707  00000+0  73679-3 0  9992",
    "TLE_LINE2": "2 62170  70.0003 104.6789 0002604 267.9249  92.1612 14.98322646 52041",
    "COMMENT": "Grouped by shell and plane from TLE"
  },
  {
    "OBJECT_NAME": "STARLINK-32257",
    "OBJECT_ID": "24225J",
    "EPOCH": "2025-11-11T03:46:34.991616",
    "MEAN_MOTION": 14.98346564,
    "ECCENTRICITY": 0.000387,
    "INCLINATION": 69.9989,
    "RA_OF_ASC_NODE": 103.1763,
    "ARG_OF_PERICENTER": 269.5144,
    "MEAN_ANOMALY": 90.5572,
    "EPHEMERIS_TYPE": 0,
    "CLASSIFICATION_TYPE": "U",
    "NORAD_CAT_ID": 62171,
    "ELEMENT_SET_NO": 999,
    "REV_AT_EPOCH": 5212,
    "BSTAR": 0.0014097,
    "MEAN_MOTION_DOT": 0.00016776,
    "MEAN_MOTION_DDOT": 0.0,
    "TLE_LINE1": "1 62171U 24225J   25315.15734944  .00016776  00000+0  14097-2 0  9994",
    "TLE_LINE2": "2 62171  69.9989 103.1763 0003870 269.5144  90.5572 14.98346564 52127",
    "COMMENT": "Grouped by shell and plane from TLE"
  },
  {
    "OBJECT_NAME": "STARLINK-32407",
    "OBJECT_ID": "24225K",
    "EPOCH": "2025-11-10T20:09:55.616256",
    "MEAN_MOTION": 14.98344684,
    "ECCENTRICITY": 0.0003262,
    "INCLINATION": 70.0017,
    "RA_OF_ASC_NODE": 104.0696,
    "ARG_OF_PERICENTER": 270.6958,
    "MEAN_ANOMALY": 89.3827,
    "EPHEMERIS_TYPE": 0,
    "CLASSIFICATION_TYPE": "U",
    "NORAD_CAT_ID": 62172,
    "ELEMENT_SET_NO": 999,
    "REV_AT_EPOCH": 5207,
    "BSTAR": 0.00056755,
    "MEAN_MOTION_DOT": 6.688e-05,
    "MEAN_MOTION_DDOT": 0.0,
    "TLE_LINE1": "1 62172U 24225K   25314.84022704  .00006688  00000+0  56755-3 0  9993",
    "TLE_LINE2": "2 62172  70.0017 104.0696 0003262 270.6958  89.3827 14.98344684 52073",
    "COMMENT": "Grouped by shell and plane from TLE"
  },
  {
    "OBJECT_NAME": "STARLINK-32552",
    "OBJECT_ID": "24225M",
    "EPOCH": "2025-11-11T03:52:33.991392",
    "MEAN_MOTION": 14.98343362,
    "ECCENTRICITY": 0.000348,
    "INCLINATION": 70.0001,
    "RA_OF_ASC_NODE": 103.1917,
    "ARG_OF_PERICENTER": 270.8141,
    "MEAN_ANOMALY": 89.262,
    "EPHEMERIS_TYPE": 0,
    "CLASSIFICATION_TYPE": "U",
    "NORAD_CAT_ID": 62174,
    "ELEMENT_SET_NO": 999,
    "REV_AT_EPOCH": 5212,
    "BSTAR": 0.00069323,
    "MEAN_MOTION_DOT": 8.191e-05,
    "MEAN_MOTION_DDOT": 0.0,
    "TLE_LINE1": "1 62174U 24225M   25315.16150453  .00008191  00000+0  69323-3 0  9990",
    "TLE_LINE2": "2 62174  70.0001 103.1917 0003480 270.8141  89.2620 14.98343362 52120",
    "COMMENT": "Grouped by shell and plane from TLE"
  },
  {
    "OBJECT_NAME": "STARLINK-32534",
    "OBJECT_ID": "24225N",
    "EPOCH": "2025-11-11T03:22:34.031424",
    "MEAN_MOTION": 14.98332524,
    "ECCENTRICITY": 0.0003195,
    "INCLINATION": 70.0013,
    "RA_OF_ASC_NODE": 103.5163,
    "ARG_OF_PERICENTER": 274.5382,
    "MEAN_ANOMALY": 85.5412,
    "EPHEMERIS_TYPE": 0,
    "CLASSIFICATION_TYPE": "U",
    "NORAD_CAT_ID": 62175,
    "ELEMENT_SET_NO": 999,
    "REV_AT_EPOCH": 5211,
    "BSTAR": 0.0005864700000000001,
    "MEAN_MOTION_DOT": 6.912e-05,
    "MEAN_MOTION_DDOT": 0.0,
    "TLE_LINE1": "1 62175U 24225N   25315.14067166  .00006912  00000+0  58647-3 0  9993",
    "TLE_LINE2": "2 62175  70.0013 103.5163 0003195 274.5382  85.5412 14.98332524 52117",
    "COMMENT": "Grouped by shell and plane from TLE"
  }
]